[{"OBJECT_NAME":"ISS (ZARYA)","OBJECT_ID":"1998-067A","EPOCH":"2026-04-01T10:10:04.736352","MEAN_MOTION":15.48695066,"ECCENTRICITY":0.0006221,"INCLINATION":51.6332,"RA_OF_ASC_NODE":319.9685,"ARG_OF_PERICENTER":259.379,"MEAN_ANOMALY":100.6498,"EPHEMERIS_TYPE":0,"CLASSIFICATION_TYPE":"U","NORAD_CAT_ID":25544,"ELEMENT_SET_NO":999,"REV_AT_EPOCH":55985,"BSTAR":0.00015247,"MEAN_MOTION_DOT":7.873e-5,"MEAN_MOTION_DDOT":0},{"OBJECT_NAME":"POISK","OBJECT_ID":"2009-060A","EPOCH":"2026-04-01T10:10:04.736352","MEAN_MOTION":15.48695066,"ECCENTRICITY":0.0006221,"INCLINATION":51.6332,"RA_OF_ASC_NODE":319.9685,"ARG_OF_PERICENTER":259.379,"MEAN_ANOMALY":100.6498,"EPHEMERIS_TYPE":0,"CLASSIFICATION_TYPE":"U","NORAD_CAT_ID":36086,"ELEMENT_SET_NO":999,"REV_AT_EPOCH":55966,"BSTAR":0.00015247,"MEAN_MOTION_DOT":7.873e-5,"MEAN_MOTION_DDOT":0},{"OBJECT_NAME":"CSS (TIANHE)","OBJECT_ID":"2021-035A","EPOCH":"2026-04-01T08:38:43.102176","MEAN_MOTION":15.61804306,"ECCENTRICITY":0.0003722,"INCLINATION":41.467,"RA_OF_ASC_NODE":70.0996,"ARG_OF_PERICENTER":85.9086,"MEAN_ANOMALY":274.2179,"EPHEMERIS_TYPE":0,"CLASSIFICATION_TYPE":"U","NORAD_CAT_ID":48274,"ELEMENT_SET_NO":999,"REV_AT_EPOCH":28115,"BSTAR":0.00027286,"MEAN_MOTION_DOT":0.00024066,"MEAN_MOTION_DDOT":0},{"OBJECT_NAME":"ISS (NAUKA)","OBJECT_ID":"2021-066A","EPOCH":"2026-04-01T10:10:04.736352","MEAN_MOTION":15.48695066,"ECCENTRICITY":0.0006221,"INCLINATION":51.6332,"RA_OF_ASC_NODE":319.9685,"ARG_OF_PERICENTER":259.379,"MEAN_ANOMALY":100.6498,"EPHEMERIS_TYPE":0,"CLASSIFICATION_TYPE":"U","NORAD_CAT_ID":49044,"ELEMENT_SET_NO":999,"REV_AT_EPOCH":55970,"BSTAR":0.00015247,"MEAN_MOTION_DOT":7.873e-5,"MEAN_MOTION_DDOT":0},{"OBJECT_NAME":"FREGAT DEB","OBJECT_ID":"2011-037PF","EPOCH":"2026-04-01T09:42:29.880864","MEAN_MOTION":12.40826791,"ECCENTRICITY":0.0958506,"INCLINATION":51.6434,"RA_OF_ASC_NODE":232.5447,"ARG_OF_PERICENTER":111.4864,"MEAN_ANOMALY":259.0863,"EPHEMERIS_TYPE":0,"CLASSIFICATION_TYPE":"U","NORAD_CAT_ID":49271,"ELEMENT_SET_NO":999,"REV_AT_EPOCH":21551,"BSTAR":0.010238,"MEAN_MOTION_DOT":7.093e-5,"MEAN_MOTION_DDOT":0},{"OBJECT_NAME":"CSS (WENTIAN)","OBJECT_ID":"2022-085A","EPOCH":"2026-04-01T08:38:43.102176","MEAN_MOTION":15.61804306,"ECCENTRICITY":0.0003722,"INCLINATION":41.467,"RA_OF_ASC_NODE":70.0996,"ARG_OF_PERICENTER":85.9086,"MEAN_ANOMALY":274.2179,"EPHEMERIS_TYPE":0,"CLASSIFICATION_TYPE":"U","NORAD_CAT_ID":53239,"ELEMENT_SET_NO":999,"REV_AT_EPOCH":28141,"BSTAR":0.00027286,"MEAN_MOTION_DOT":0.00024066,"MEAN_MOTION_DDOT":0},{"OBJECT_NAME":"CSS (MENGTIAN)","OBJECT_ID":"2022-143A","EPOCH":"2026-04-01T08:38:43.102176","MEAN_MOTION":15.61804306,"ECCENTRICITY":0.0003722,"INCLINATION":41.467,"RA_OF_ASC_NODE":70.0996,"ARG_OF_PERICENTER":85.9086,"MEAN_ANOMALY":274.2179,"EPHEMERIS_TYPE":0,"CLASSIFICATION_TYPE":"U","NORAD_CAT_ID":54216,"ELEMENT_SET_NO":999,"REV_AT_EPOCH":28141,"BSTAR":0.00027286,"MEAN_MOTION_DOT":0.00024066,"MEAN_MOTION_DDOT":0},{"OBJECT_NAME":"TIANZHOU-9","OBJECT_ID":"2025-149A","EPOCH":"2026-04-01T08:38:43.102176","MEAN_MOTION":15.61804306,"ECCENTRICITY":0.0003722,"INCLINATION":41.467,"RA_OF_ASC_NODE":70.0996,"ARG_OF_PERICENTER":85.9086,"MEAN_ANOMALY":274.2179,"EPHEMERIS_TYPE":0,"CLASSIFICATION_TYPE":"U","NORAD_CAT_ID":64786,"ELEMENT_SET_NO":999,"REV_AT_EPOCH":28141,"BSTAR":0.00027286,"MEAN_MOTION_DOT":0.00024066,"MEAN_MOTION_DDOT":0},{"OBJECT_NAME":"PROGRESS-MS 32","OBJECT_ID":"2025-204A","EPOCH":"2026-03-31T21:46:42.991392","MEAN_MOTION":15.48687442,"ECCENTRICITY":0.00062134,"INCLINATION":51.6333,"RA_OF_ASC_NODE":322.521,"ARG_OF_PERICENTER":256.9314,"MEAN_ANOMALY":103.0981,"EPHEMERIS_TYPE":0,"CLASSIFICATION_TYPE":"U","NORAD_CAT_ID":65586,"ELEMENT_SET_NO":999,"REV_AT_EPOCH":55450,"BSTAR":0.00020218856,"MEAN_MOTION_DOT":0.00010588,"MEAN_MOTION_DDOT":0},{"OBJECT_NAME":"YOTSUBA-KULOVER","OBJECT_ID":"1998-067XN","EPOCH":"2026-03-31T21:04:26.155200","MEAN_MOTION":15.94260601,"ECCENTRICITY":0.00068272,"INCLINATION":51.6165,"RA_OF_ASC_NODE":301.1906,"ARG_OF_PERICENTER":240.2535,"MEAN_ANOMALY":119.7794,"EPHEMERIS_TYPE":0,"CLASSIFICATION_TYPE":"U","NORAD_CAT_ID":65941,"ELEMENT_SET_NO":999,"REV_AT_EPOCH":2702,"BSTAR":0.0012275533,"MEAN_MOTION_DOT":0.00468364,"MEAN_MOTION_DDOT":9.8466819e-5},{"OBJECT_NAME":"BOTAN","OBJECT_ID":"1998-067XQ","EPOCH":"2026-03-31T00:18:37.870848","MEAN_MOTION":15.9236774,"ECCENTRICITY":0.00067563,"INCLINATION":51.6201,"RA_OF_ASC_NODE":305.9446,"ARG_OF_PERICENTER":227.9633,"MEAN_ANOMALY":132.0799,"EPHEMERIS_TYPE":0,"CLASSIFICATION_TYPE":"U","NORAD_CAT_ID":65943,"ELEMENT_SET_NO":999,"REV_AT_EPOCH":2688,"BSTAR":0.0012667212,"MEAN_MOTION_DOT":0.00437127,"MEAN_MOTION_DDOT":8.4923006e-5},{"OBJECT_NAME":"HRC MONOBLOCK CAMERA","OBJECT_ID":"1998-067XR","EPOCH":"2026-04-01T00:12:19.946880","MEAN_MOTION":15.64633042,"ECCENTRICITY":0.0003828,"INCLINATION":51.6275,"RA_OF_ASC_NODE":312.6913,"ARG_OF_PERICENTER":200.781,"MEAN_ANOMALY":159.303,"EPHEMERIS_TYPE":0,"CLASSIFICATION_TYPE":"U","NORAD_CAT_ID":66052,"ELEMENT_SET_NO":999,"REV_AT_EPOCH":2588,"BSTAR":0.00064935,"MEAN_MOTION_DOT":0.00064086,"MEAN_MOTION_DDOT":0},{"OBJECT_NAME":"HTV-X1","OBJECT_ID":"2025-241A","EPOCH":"2026-04-01T11:23:10.241376","MEAN_MOTION":15.3248927,"ECCENTRICITY":0.0007223,"INCLINATION":51.6374,"RA_OF_ASC_NODE":323.2502,"ARG_OF_PERICENTER":261.0182,"MEAN_ANOMALY":98.9982,"EPHEMERIS_TYPE":0,"CLASSIFICATION_TYPE":"U","NORAD_CAT_ID":66174,"ELEMENT_SET_NO":999,"REV_AT_EPOCH":2443,"BSTAR":5.0371e-5,"MEAN_MOTION_DOT":1.232e-5,"MEAN_MOTION_DDOT":0},{"OBJECT_NAME":"SZ-21 MODULE","OBJECT_ID":"2025-246C","EPOCH":"2026-04-01T06:45:24.481440","MEAN_MOTION":15.70350675,"ECCENTRICITY":0.000248,"INCLINATION":41.4741,"RA_OF_ASC_NODE":64.1049,"ARG_OF_PERICENTER":219.0022,"MEAN_ANOMALY":141.0642,"EPHEMERIS_TYPE":0,"CLASSIFICATION_TYPE":"U","NORAD_CAT_ID":66515,"ELEMENT_SET_NO":999,"REV_AT_EPOCH":2162,"BSTAR":0.00033251,"MEAN_MOTION_DOT":0.00041682,"MEAN_MOTION_DDOT":0},{"OBJECT_NAME":"SHENZHOU-22","OBJECT_ID":"2025-272A","EPOCH":"2026-04-01T08:38:43.102176","MEAN_MOTION":15.61804306,"ECCENTRICITY":0.0003722,"INCLINATION":41.467,"RA_OF_ASC_NODE":70.0996,"ARG_OF_PERICENTER":85.9086,"MEAN_ANOMALY":274.2179,"EPHEMERIS_TYPE":0,"CLASSIFICATION_TYPE":"U","NORAD_CAT_ID":66645,"ELEMENT_SET_NO":999,"REV_AT_EPOCH":28141,"BSTAR":0.00027286,"MEAN_MOTION_DOT":0.00024066,"MEAN_MOTION_DDOT":0},{"OBJECT_NAME":"SOYUZ-MS 28","OBJECT_ID":"2025-275A","EPOCH":"2026-04-01T10:10:04.736352","MEAN_MOTION":15.48695066,"ECCENTRICITY":0.0006221,"INCLINATION":51.6332,"RA_OF_ASC_NODE":319.9685,"ARG_OF_PERICENTER":259.379,"MEAN_ANOMALY":100.6498,"EPHEMERIS_TYPE":0,"CLASSIFICATION_TYPE":"U","NORAD_CAT_ID":66664,"ELEMENT_SET_NO":999,"REV_AT_EPOCH":55994,"BSTAR":0.00015247,"MEAN_MOTION_DOT":7.873e-5,"MEAN_MOTION_DDOT":0}]
